S-NET A                 
1 43188U 18014J   25165.66169200  .00005029  00000+0  29742-3 0  9999
2 43188  97.5637  68.6392 0009091 193.3944 166.7047 15.11881162403146
S-NET C                 
1 43189U 18014K   25165.66919637  .00005194  00000+0  30715-3 0  9992
2 43189  97.5653  68.6616 0010807 187.3832 172.7241 15.11851909401697
PAZ                     
1 43215U 18020A   25165.95729248  .00002181  00000+0  10704-3 0  9997
2 43215  97.4447 173.6078 0001798  89.0718 271.0722 15.19142749405252
GOES 17                 
1 43226U 18022A   25164.84265192 -.00000086  00000+0  00000+0 0  9998
2 43226   0.0279 213.9012 0002223 259.7735 347.8196  1.00322278 26733
LKW-4                   
1 43236U 18025A   25165.40340076  .00016670  00000+0  43597-3 0  9997
2 43236  97.6011 311.0541 0004022 175.4570 184.6712 15.38820214403107
ZHUHAI-1 OVS-02         
1 43440U 18040B   25165.89687673  .00006760  00000+0  32258-3 0  9992
2 43440  97.0714 200.6294 0006108 111.2112 248.9777 15.19348649396846
ZHUHAI-1 OHS-02         
1 43441U 18040C   25165.92289974  .00010106  00000+0  38757-3 0  9998
2 43441  97.0775 205.2282 0014852 106.8492 253.4378 15.26572814 58257
GAOFEN-6                
1 43484U 18048A   25165.92048973  .00000684  00000+0  10505-3 0  9996
2 43484  97.8230 235.9939 0011230 282.9184  77.0772 14.76563510379192
LUOJIA-1 01             
1 43485U 18048B   25165.92725773  .00002047  00000+0  24481-3 0  9990
2 43485  97.8425 244.8532 0008070 242.3300 117.7097 14.85235139379662
PAKTES 1A               
1 43529U 18056A   25165.86958830  .00003330  00000+0  29600-3 0  9997
2 43529  98.0800 303.5466 0020660 248.5664 111.3353 14.96694752376934
PRSS 1                  
1 43530U 18056B   25165.91932491  .00000894  00000+0  12172-3 0  9998
2 43530  97.8253 238.2134 0001753  98.7033 261.4378 14.81095965374058
HAIYANG-1C              
1 43609U 18068A   25165.91667049  .00000152  00000+0  69844-4 0  9998
2 43609  98.5618 237.6693 0011519 103.5051 256.7418 14.34171169354449
SSTL S1-4               
1 43618U 18071A   25165.93119283  .00001009  00000+0  94562-4 0  9993
2 43618  97.5545  46.5817 0000667 343.0431  17.0768 14.96137249368021
HAIYANG-2B              
1 43655U 18081A   25165.89926926  .00000001  00000+0  44311-4 0  9998
2 43655  99.3321 175.1177 0001574 135.8303 224.2974 13.79305204334296
CZ-4B R/B               
1 43656U 18081B   25165.94912861  .00000094  00000+0  45900-4 0  9995
2 43656  99.3960  49.2956 0204398 244.0983 113.9003 14.31651137346757
CFOSAT                  
1 43662U 18083A   25165.93484868  .00003426  00000+0  17900-3 0  9994
2 43662  97.3618 176.2508 0001766 118.2846 241.8565 15.16540836366786
TEN-KOH                 
1 43677U 18084G   25165.93036690  .00002250  00000+0  18323-3 0  9991
2 43677  98.0865 338.3981 0005687 235.9719 124.0964 15.00599942361046
DIWATA-2B               
1 43678U 18084H   25165.93110454  .00001334  00000+0  11733-3 0  9993
2 43678  98.1040 342.2604 0007167 272.7092  87.3309 14.98358258361185
STARS-AO                
1 43679U 18084J   25165.78288213  .00005820  00000+0  34988-3 0  9997
2 43679  98.0747 353.0393 0002211  13.5185 346.6103 15.11290122361873
AUTCUBE 2               
1 43681U 18084K   25165.75380841  .00003476  00000+0  24096-3 0  9991
2 43681  98.0846 348.0227 0009338 194.4806 165.6154 15.06313452361547
METOP-C                 
1 43689U 18087A   25165.92361735  .00000116  00000+0  73112-4 0  9994
2 43689  98.7152 226.1893 0002090 124.3473 235.7902 14.21488126342655
ES'HAIL 2               
1 43700U 18090A   25165.93286566  .00000157  00000+0  00000+0 0  9997
2 43700   0.0006   2.6487 0002299 115.8429 146.6078  1.00269966 23995
TIANPING 1B             
1 43714U 18094E   25165.78088255  .00047881  00000+0  37601-3 0  9990
2 43714  97.3202 199.2945 0004576  51.7555 308.4119 15.71387069367024
MOHAMMED VI-B           
1 43717U 18095A   25165.88013407  .00000806  10240-9  11428-3 0  9994
2 43717  97.9533 238.4832 0001537 102.5500 257.5882 14.77118998333213
HYSIS                   
1 43719U 18096A   25165.89373757  .00001252  24800-9  17132-3 0  9996
2 43719  98.0304 229.4885 0000879 123.6484 236.4811 14.78591994353148
COSMOS 2530             
1 43751U 18097A   25165.90374095  .00000034  00000+0  17272-3 0  9999
2 43751  82.5144  90.2723 0020485 114.0042 246.3184 12.42866505296666
COSMOS 2531             
1 43752U 18097B   25165.93047617  .00000029  00000+0  13410-3 0  9994
2 43752  82.5189  91.1830 0017060 131.3066 228.9485 12.42859773296689
COSMOS 2532             
1 43753U 18097C   25165.87680624  .00000035  00000+0  18348-3 0  9991
2 43753  82.5134  90.1678 0018541 133.6255 226.6366 12.42858823296643
MINXSS-2                
1 43758U 18099A   25165.64227555  .00015069  00000+0  58903-3 0  9997
2 43758  97.5013 231.6930 0013202 134.8215 225.4098 15.25878140357747
SIRION PATHFINDER-2     
1 43759U 18099B   25165.88315505  .00005242  00000+0  32648-3 0  9997
2 43759  97.4765 218.6816 0011189 123.0896 237.1409 15.09949890357116
AISTECHSAT 2            
1 43768U 18099L   25165.89305000  .00006057  00000+0  37169-3 0  9995
2 43768  97.4811 217.0661 0006671 121.2573 238.9311 15.10458853356746
FOX-1CLIFF (AO-95)      
1 43770U 18099N   25165.66092193  .00008798  00000+0  44377-3 0  9992
2 43770  97.4904 223.6904 0010709 185.8671 174.2438 15.17321013357328
2018-099Q               
1 43772U 18099Q   25165.69643822  .00018335  00000+0  61349-3 0  9994
2 43772  97.4707 230.7404 0005132  91.2535 268.9294 15.31014113357785
RANGE-A                 
1 43773U 18099R   25165.70619494  .00003953  00000+0  25266-3 0  9993
2 43773  97.4467 213.9595 0011796 166.2781 193.8771 15.09134207356992
HIBER-2                 
1 43774U 18099S   25165.91062473  .00030457  00000+0  79681-3 0  9995
2 43774  97.4880 235.1135 0007119 117.8646 242.3320 15.38664054358008
MOVE-II                 
1 43780U 18099Y   25165.47606777  .00301413  00000+0  16048-2 0  9994
2 43780  97.4630 241.4910 0005471 197.4761 162.6319 15.79611997358577
VESTA-1                 
1 43781U 18099Z   25165.13579141  .00063909  00000+0  16599-2 0  9998
2 43781  97.4615 227.8784 0005044 136.7828 223.3814 15.38721851357765
SNUSAT-2                
1 43782U 18099AA  25165.69344298  .00007492  00000+0  40731-3 0  9994
2 43782  97.4587 220.4322 0013428 132.2683 227.9690 15.14690445357272
SNUGLITE                
1 43784U 18099AC  25165.69009540  .00009557  00000+0  47754-3 0  9990
2 43784  97.4400 219.9993 0004986 126.5148 233.6546 15.17660161357411
ITASAT                  
1 43786U 18099AE  25165.63841565  .00006931  00000+0  39531-3 0  9994
2 43786  97.4551 219.8736 0014401 182.6095 177.5064 15.12992847357225
KAZSCISAT-1             
1 43787U 18099AF  25165.68217005  .00272601  00000+0  16697-2 0  9992
2 43787  97.4428 236.9985 0003816 200.7116 159.3995 15.76537876358532
EAGLET-I                
1 43790U 18099AJ  25165.58983535  .00003825  00000+0  24484-3 0  9997
2 43790  97.4750 219.7669 0012558 165.1028 195.0574 15.09094314356822
ESEO                    
1 43792U 18099AL  25165.86234150  .00001731  00000+0  13394-3 0  9994
2 43792  97.4491 213.2248 0014357 139.0972 221.1333 15.02644600356618
CSIM-FD                 
1 43793U 18099AM  25165.46897480  .00133479  00000+0  80676-3 0  9994
2 43793  97.4794 243.7388 0005298 177.5448 182.5845 15.77213488358413
THEA                    
1 43796U 18099AQ  25165.66662079  .00011978  00000+0  53142-3 0  9990
2 43796  97.4925 229.5872 0011157 137.8646 222.3450 15.21676453356576
ASTROCAST 0.1           
1 43798U 18099AS  25165.75897555  .00014884  00000+0  53309-3 0  9995
2 43798  97.4830 233.3075 0009321  98.4838 261.7459 15.28813473357968
JY1SAT (JO-97)          
1 43803U 18099AX  25165.65055849  .00011526  00000+0  52277-3 0  9996
2 43803  97.4649 224.6811 0008975 123.5602 236.6492 15.20948352357546
SUOMI-100               
1 43804U 18099AY  25165.67315868  .00009065  00000+0  44161-3 0  9997
2 43804  97.4717 223.9859 0013914 127.2114 233.0392 15.18490244357476
AL-FARABI 2             
1 43805U 18099AZ  25165.90326316  .00022523  00000+0  69169-3 0  9993
2 43805  97.4541 230.0919 0008349 104.7805 255.4363 15.33699942357997
CENTAURI-1              
1 43809U 18099BD  25165.70008378  .00006149  00000+0  36719-3 0  9991
2 43809  97.4745 220.4053 0016588 154.7664 205.4380 15.11348092356908
GLOBAL-2                
1 43812U 18099BG  25165.88101142  .00004150  00000+0  29068-3 0  9996
2 43812  97.4031 212.2904 0005647 347.6244  12.4843 15.05747901356584
BRIO                    
1 43813U 18099BH  25165.77994190  .00336572  00000+0  16089-2 0  9992
2 43813  97.5091 249.6450 0002469 250.6880 109.4121 15.81900306358380
SEAHAWK-1               
1 43820U 18099BQ  25165.87342845  .00007407  00000+0  39680-3 0  9990
2 43820  97.4486 219.7824 0010954 143.8333 216.3643 15.15243557356775
SAUDISAT 5A             
1 43831U 18102A   25165.92309004  .00005339  00000+0  22877-3 0  9995
2 43831  97.3572 229.6819 0010482   0.4877 359.6368 15.23140938359689
SAUDISAT 5B             
1 43833U 18102C   25165.89557907  .00004713  00000+0  19964-3 0  9998
2 43833  97.3653 232.0777 0011277   2.9122 357.2178 15.23585891359780
2018-102D               
1 43834U 18102D   25165.91549377  .00016396  00000+0  42536-3 0  9995
2 43834  97.3799 242.1745 0006641 336.2583  23.8355 15.39052416360359
ISAT                    
1 43879U 18111D   25165.53076074  .00017278  00000+0  59465-3 0  9990
2 43879  97.5958  80.0336 0009088 166.7431 193.4050 15.30087387354454
UWE-4                   
1 43880U 18111E   25165.65512694  .00013569  00000+0  52856-3 0  9994
2 43880  97.5902  78.6042 0011688 182.9466 177.1705 15.26040184354409
D-STAR ONE (SPARROW)    
1 43881U 18111F   25165.70477775  .00017549  00000+0  58144-3 0  9999
2 43881  97.6104  83.1091 0005803 201.5563 158.5434 15.31341753354570
